OBJECT_NAME,OBJECT_ID,EPOCH,MEAN_MOTION,ECCENTRICITY,INCLINATION,RA_OF_ASC_NODE,ARG_OF_PERICENTER,MEAN_ANOMALY,EPHEMERIS_TYPE,CLASSIFICATION_TYPE,NORAD_CAT_ID,ELEMENT_SET_NO,REV_AT_EPOCH,BSTAR,MEAN_MOTION_DOT,MEAN_MOTION_DDOT
SIRION PATHFINDER-2,2018-099B,2026-05-15T01:52:18.805152,15.14229080,.00101356,97.4279,184.9258,61.6089,298.6163,0,U,43759,999,40761,.20044057E-3,.3601E-4,0
CORVUS BC4,2018-099K,2026-05-15T02:32:51.278784,15.12209944,.00100262,97.4094,179.0575,112.3367,247.8927,0,U,43767,999,40740,.15090742E-3,.2545E-4,0
M2 PATHFINDER,2020-037E,2026-05-14T23:51:25.591680,15.04525519,.00099943,97.8164,325.8548,264.3283,95.6803,0,U,45727,999,32050,.10727497E-3,.144E-4,0
NETSAT-4,2020-068U,2026-05-15T06:01:53.863968,15.42714746,.00076118,97.8610,140.8761,84.4186,275.7928,0,U,46504,999,31069,.22090247E-3,.9556E-4,0
NETSAT-3,2020-068V,2026-05-14T21:46:23.329344,15.41482043,.0007523,97.8662,138.7651,98.0690,262.1409,0,U,46505,999,31055,.27854754E-3,.1159E-3,0
NETSAT-1,2020-068W,2026-05-13T23:00:39.099168,15.33779633,.0006813,97.8748,132.4691,119.6117,240.5803,0,U,46506,999,31005,.27422E-3,.8878E-4,0
NETSAT-2,2020-068X,2026-05-15T00:13:28.830144,15.44527800,.00062165,97.8628,140.3975,106.5012,253.6918,0,U,46507,999,31061,.31647734E-3,.14604E-3,0
GREENCUBE (IO-117),2022-080E,2026-05-14T09:52:07.467456,6.42583317,.0008807,70.1435,309.9963,297.4178,62.5586,0,U,53109,999,8989,0,-.3E-7,0
SITRO-AIS 5 (KATYS),2023-091L,2026-05-15T06:47:48.231168,15.28653582,.0010938,97.5082,198.8870,210.9830,149.0766,0,U,57176,999,15931,.23415848E-3,.6458E-4,0
SITRO-AIS 6 (CHIRKIN),2023-091AC,2026-05-15T06:04:52.355136,15.25270742,.00110738,97.5090,198.1468,214.5915,145.4603,0,U,57192,999,15926,.22286608E-3,.5541E-4,0
SITRO-AIS 8 (ANOKHIN),2023-091AD,2026-05-15T06:58:48.812736,15.31191461,.0010248,97.5078,200.3536,206.3177,153.7544,0,U,57193,999,15941,.24346223E-3,.7267E-4,0
SITRO-AIS 7 (FARTUSHNIY),2023-091AE,2026-05-15T05:59:57.249024,15.24975741,.00109045,97.5087,197.9849,215.8168,144.2339,0,U,57194,999,15925,.21533006E-3,.5303E-4,0
SITRO-AIS 10 (BURDAEV),2023-091AK,2026-05-15T06:16:38.280288,15.37300753,.00072711,97.5101,205.0486,178.3582,181.7688,0,U,57199,999,15970,.2950844E-3,.10711E-3,0
SITRO-AIS 9 (SHCHUKIN),2023-091AM,2026-05-15T06:40:13.131264,15.36846689,.0007474,97.5099,204.8202,179.0700,181.0559,0,U,57201,999,15969,.29611385E-3,.10593E-3,0
SITRO-AIS 12 (SMIRENNIY),2023-091AQ,2026-05-15T06:35:34.074816,15.37131344,.00072652,97.5111,205.2636,173.0230,187.1116,0,U,57204,999,15971,.29235648E-3,.10553E-3,0
SITRO-AIS 11 (SHEFFER),2023-091AU,2026-05-15T07:07:29.622432,15.37524489,.00071945,97.5109,205.5130,172.7317,187.4033,0,U,57208,999,15973,.28414823E-3,.10386E-3,0
SITRO-AIS 25,2024-039R,2026-05-15T06:37:47.173152,14.93271854,.01473989,95.3921,212.4802,83.3596,278.4382,0,U,59066,999,11981,.22042344E-3,.2824E-4,0
SITRO-AIS 26,2024-039S,2026-05-15T06:33:22.854816,14.93074517,.01477261,95.3922,212.3824,83.9115,277.8920,0,U,59067,999,11980,.21317353E-3,.2718E-4,0
SITRO-AIS 27,2024-039T,2026-05-15T07:40:11.430336,14.93487434,.01468494,95.3925,212.6707,82.4385,279.3494,0,U,59068,999,11983,.19119988E-3,.2456E-4,0
SITRO-AIS 28,2024-039U,2026-05-15T07:08:48.133248,14.93522386,.01468008,95.3926,212.7012,82.3887,279.3984,0,U,59071,999,11983,.25360738E-3,.3271E-4,0
GRBBETA,2024-128C,2026-05-14T23:11:37.087872,15.06351798,.00451207,61.9902,332.7970,127.8398,232.6792,0,U,60237,999,10126,.19679519E-3,.2754E-4,0
OOV-CUBE (TUBSAT-30),2024-128F,2026-05-14T14:01:26.770368,15.02594260,.00487801,61.9949,342.7297,126.4623,234.0978,0,U,60240,999,10106,.12409816E-3,.1484E-4,0
ROBUSTA-3A (MEDITERRANEE),2024-128J,2026-05-14T23:44:32.777664,15.11125881,.0045763,61.9866,325.5967,121.7152,238.8416,0,U,60243,999,10140,.32275186E-3,.5346E-4,0
LASARSAT,2024-247Q,2026-05-14T07:05:32.423424,15.44206327,.00048327,44.9738,92.3362,129.6361,230.4955,0,U,62391,999,7807,.47806398E-3,.22146E-3,0
CROCUBE,2024-247T,2026-05-15T05:39:58.133664,15.45837898,.00045886,44.9720,84.8957,139.6403,220.4828,0,U,62394,999,7824,.40063712E-3,.19569E-3,0
FORESAIL-1 PRIME,2025-276DS,2026-05-15T04:20:24.975168,15.18379093,.00020118,97.4210,209.0621,179.9372,180.1863,0,U,66778,999,2539,.13189908E-3,.2644E-4,0
KNACKSAT-2,1998-067XZ,2026-05-15T04:45:02.796192,15.56991437,.00124684,51.6278,100.0252,77.0841,283.1543,0,U,67683,999,1513,.34567207E-3,.25092E-3,0
