SIRION PATHFINDER-2     
1 43759U 18099B   26135.07799543  .00003601  00000+0  20044-3 0  9998
2 43759  97.4279 184.9258 0010135  61.6089 298.6163 15.14229080407610
CORVUS BC4              
1 43767U 18099K   26135.10614906  .00002545  00000+0  15091-3 0  9992
2 43767  97.4094 179.0575 0010026 112.3367 247.8927 15.12209944407409
M2 PATHFINDER           
1 45727U 20037E   26134.99404620  .00001440  00000+0  10727-3 0  9995
2 45727  97.8164 325.8548 0009994 264.3283  95.6803 15.04525519320504
NETSAT-4                
1 46504U 20068U   26135.25131787  .00009556  00000+0  22090-3 0  9996
2 46504  97.8610 140.8761 0007611  84.4186 275.7928 15.42714746310695
NETSAT-3                
1 46505U 20068V   26134.90721446  .00011590  00000+0  27855-3 0  9990
2 46505  97.8662 138.7651 0007523  98.0690 262.1409 15.41482043310550
NETSAT-1                
1 46506U 20068W   26133.95878587  .00008878  00000+0  27422-3 0  9999
2 46506  97.8748 132.4691 0006813 119.6117 240.5803 15.33779633310054
NETSAT-2                
1 46507U 20068X   26135.00936146  .00014604  00000+0  31648-3 0  9993
2 46507  97.8628 140.3975 0006216 106.5012 253.6918 15.44527800310614
GREENCUBE (IO-117)      
1 53109U 22080E   26134.41119754 -.00000003  00000+0  00000+0 0  9990
2 53109  70.1435 309.9963 0008807 297.4178  62.5586  6.42583317 89895
SITRO-AIS 5 (KATYS)     
1 57176U 23091L   26135.28319712  .00006458  00000+0  23416-3 0  9992
2 57176  97.5082 198.8870 0010938 210.9830 149.0766 15.28653582159311
SITRO-AIS 6 (CHIRKIN)   
1 57192U 23091AC  26135.25338374  .00005541  00000+0  22287-3 0  9999
2 57192  97.5090 198.1468 0011073 214.5915 145.4603 15.25270742159263
SITRO-AIS 8 (ANOKHIN)   
1 57193U 23091AD  26135.29084274  .00007267  00000+0  24346-3 0  9996
2 57193  97.5078 200.3536 0010248 206.3177 153.7544 15.31191461159414
SITRO-AIS 7 (FARTUSHNIY)
1 57194U 23091AE  26135.24996816  .00005303  00000+0  21533-3 0  9990
2 57194  97.5087 197.9849 0010904 215.8168 144.2339 15.24975741159259
SITRO-AIS 10 (BURDAEV)  
1 57199U 23091AK  26135.26155417  .00010711  00000+0  29508-3 0  9990
2 57199  97.5101 205.0486 0007271 178.3582 181.7688 15.37300753159707
SITRO-AIS 9 (SHCHUKIN)  
1 57201U 23091AM  26135.27792976  .00010593  00000+0  29611-3 0  9995
2 57201  97.5099 204.8202 0007474 179.0700 181.0559 15.36846689159695
SITRO-AIS 12 (SMIRENNIY)
1 57204U 23091AQ  26135.27469994  .00010553  00000+0  29236-3 0  9998
2 57204  97.5111 205.2636 0007265 173.0230 187.1116 15.37131344159714
SITRO-AIS 11 (SHEFFER)  
1 57208U 23091AU  26135.29687063  .00010386  00000+0  28415-3 0  9995
2 57208  97.5109 205.5130 0007194 172.7317 187.4033 15.37524489159739
SITRO-AIS 25            
1 59066U 24039R   26135.27624043  .00002824  00000+0  22042-3 0  9997
2 59066  95.3921 212.4802 0147398  83.3596 278.4382 14.93271854119810
SITRO-AIS 26            
1 59067U 24039S   26135.27318119  .00002718  00000+0  21317-3 0  9998
2 59067  95.3922 212.3824 0147726  83.9115 277.8920 14.93074517119800
SITRO-AIS 27            
1 59068U 24039T   26135.31957674  .00002456  00000+0  19120-3 0  9997
2 59068  95.3925 212.6707 0146849  82.4385 279.3494 14.93487434119837
SITRO-AIS 28            
1 59071U 24039U   26135.29777932  .00003271  00000+0  25361-3 0  9995
2 59071  95.3926 212.7012 0146800  82.3887 279.3984 14.93522386119835
GRBBETA                 
1 60237U 24128C   26134.96640148  .00002754  00000+0  19680-3 0  9993
2 60237  61.9902 332.7970 0045120 127.8398 232.6792 15.06351798101264
OOV-CUBE (TUBSAT-30)    
1 60240U 24128F   26134.58433762  .00001484  00000+0  12410-3 0  9990
2 60240  61.9949 342.7297 0048780 126.4623 234.0978 15.02594260101062
ROBUSTA-3A (MEDITERRAN*)
1 60243U 24128J   26134.98926826  .00005346  00000+0  32275-3 0  9997
2 60243  61.9866 325.5967 0045763 121.7152 238.8416 15.11125881101405
LASARSAT                
1 62391U 24247Q   26134.29551416  .00022146  00000+0  47806-3 0  9991
2 62391  44.9738  92.3362 0004832 129.6361 230.4955 15.44206327 78072
CROCUBE                 
1 62394U 24247T   26135.23608951  .00019569  00000+0  40064-3 0  9990
2 62394  44.9720  84.8957 0004588 139.6403 220.4828 15.45837898 78249
FORESAIL-1 PRIME        
1 66778U 25276DS  26135.18084462  .00002644  00000+0  13190-3 0  9998
2 66778  97.4210 209.0621 0002011 179.9372 180.1863 15.18379093 25393
KNACKSAT-2              
1 67683U 98067XZ  26135.19794903  .00025092  00000+0  34567-3 0  9994
2 67683  51.6278 100.0252 0012468  77.0841 283.1543 15.56991437 15135
